[{"OBJECT_NAME":"STARLINK-37073","OBJECT_ID":"2026-049K","EPOCH":"2026-03-19T12:17:46.658976","MEAN_MOTION":16.03149567,"ECCENTRICITY":5.83e-5,"INCLINATION":97.279,"RA_OF_ASC_NODE":98.075,"ARG_OF_PERICENTER":352.5845,"MEAN_ANOMALY":7.5426,"EPHEMERIS_TYPE":0,"CLASSIFICATION_TYPE":"U","NORAD_CAT_ID":68151,"ELEMENT_SET_NO":999,"REV_AT_EPOCH":95,"BSTAR":-0.00081365,"MEAN_MOTION_DOT":-0.00494902,"MEAN_MOTION_DDOT":9.1744e-5},{"OBJECT_NAME":"STARLINK-37049","OBJECT_ID":"2026-049L","EPOCH":"2026-03-19T00:18:24.647328","MEAN_MOTION":16.04917116,"ECCENTRICITY":4.74e-5,"INCLINATION":97.2794,"RA_OF_ASC_NODE":97.5302,"ARG_OF_PERICENTER":89.6838,"MEAN_ANOMALY":270.4498,"EPHEMERIS_TYPE":0,"CLASSIFICATION_TYPE":"U","NORAD_CAT_ID":68152,"ELEMENT_SET_NO":999,"REV_AT_EPOCH":87,"BSTAR":-0.00061657,"MEAN_MOTION_DOT":-0.00417006,"MEAN_MOTION_DDOT":6.8149e-5},{"OBJECT_NAME":"STARLINK-37072","OBJECT_ID":"2026-049M","EPOCH":"2026-03-19T12:16:50.098080","MEAN_MOTION":16.0350625,"ECCENTRICITY":0.0002614,"INCLINATION":97.2788,"RA_OF_ASC_NODE":98.076,"ARG_OF_PERICENTER":12.6003,"MEAN_ANOMALY":347.5342,"EPHEMERIS_TYPE":0,"CLASSIFICATION_TYPE":"U","NORAD_CAT_ID":68153,"ELEMENT_SET_NO":999,"REV_AT_EPOCH":95,"BSTAR":-0.00025962,"MEAN_MOTION_DOT":-0.00162025,"MEAN_MOTION_DDOT":1.2479e-5},{"OBJECT_NAME":"STARLINK-36241","OBJECT_ID":"2026-049N","EPOCH":"2026-03-19T12:15:49.006368","MEAN_MOTION":16.03790974,"ECCENTRICITY":0.0002702,"INCLINATION":97.2787,"RA_OF_ASC_NODE":98.0764,"ARG_OF_PERICENTER":13.124,"MEAN_ANOMALY":347.011,"EPHEMERIS_TYPE":0,"CLASSIFICATION_TYPE":"U","NORAD_CAT_ID":68154,"ELEMENT_SET_NO":999,"REV_AT_EPOCH":95,"BSTAR":-0.00021485,"MEAN_MOTION_DOT":-0.00136495,"MEAN_MOTION_DDOT":9.5698e-6},{"OBJECT_NAME":"STARLINK-37048","OBJECT_ID":"2026-049P","EPOCH":"2026-03-19T07:45:22.656096","MEAN_MOTION":16.0490738,"ECCENTRICITY":0.0002251,"INCLINATION":97.2786,"RA_OF_ASC_NODE":97.8732,"ARG_OF_PERICENTER":149.8692,"MEAN_ANOMALY":210.2719,"EPHEMERIS_TYPE":0,"CLASSIFICATION_TYPE":"U","NORAD_CAT_ID":68155,"ELEMENT_SET_NO":999,"REV_AT_EPOCH":92,"BSTAR":0.00015061,"MEAN_MOTION_DOT":0.00101037,"MEAN_MOTION_DDOT":6.6606e-6},{"OBJECT_NAME":"STARLINK-36313","OBJECT_ID":"2026-049Q","EPOCH":"2026-03-19T12:15:24.149088","MEAN_MOTION":16.03927223,"ECCENTRICITY":0.0002314,"INCLINATION":97.2787,"RA_OF_ASC_NODE":98.0771,"ARG_OF_PERICENTER":1.4479,"MEAN_ANOMALY":358.6808,"EPHEMERIS_TYPE":0,"CLASSIFICATION_TYPE":"U","NORAD_CAT_ID":68156,"ELEMENT_SET_NO":999,"REV_AT_EPOCH":95,"BSTAR":-0.00026937,"MEAN_MOTION_DOT":-0.00172305,"MEAN_MOTION_DDOT":1.3864e-5},{"OBJECT_NAME":"STARLINK-37064","OBJECT_ID":"2026-049R","EPOCH":"2026-03-19T12:16:14.522016","MEAN_MOTION":16.03667729,"ECCENTRICITY":0.0002239,"INCLINATION":97.2784,"RA_OF_ASC_NODE":98.0764,"ARG_OF_PERICENTER":357.8304,"MEAN_ANOMALY":2.2966,"EPHEMERIS_TYPE":0,"CLASSIFICATION_TYPE":"U","NORAD_CAT_ID":68157,"ELEMENT_SET_NO":999,"REV_AT_EPOCH":95,"BSTAR":-0.00022898,"MEAN_MOTION_DOT":-0.00144348,"MEAN_MOTION_DDOT":1.0411e-5},{"OBJECT_NAME":"STARLINK-37069","OBJECT_ID":"2026-049S","EPOCH":"2026-03-19T12:13:33.650400","MEAN_MOTION":16.06600253,"ECCENTRICITY":0.0001368,"INCLINATION":97.2784,"RA_OF_ASC_NODE":98.0788,"ARG_OF_PERICENTER":7.264,"MEAN_ANOMALY":352.8662,"EPHEMERIS_TYPE":0,"CLASSIFICATION_TYPE":"U","NORAD_CAT_ID":68158,"ELEMENT_SET_NO":999,"REV_AT_EPOCH":95,"BSTAR":0.0014785,"MEAN_MOTION_DOT":0.01093981,"MEAN_MOTION_DDOT":0.00068408},{"OBJECT_NAME":"STARLINK-37053","OBJECT_ID":"2026-049T","EPOCH":"2026-03-19T07:44:16.984320","MEAN_MOTION":16.05261971,"ECCENTRICITY":0.0002531,"INCLINATION":97.2784,"RA_OF_ASC_NODE":97.8738,"ARG_OF_PERICENTER":141.0873,"MEAN_ANOMALY":219.0591,"EPHEMERIS_TYPE":0,"CLASSIFICATION_TYPE":"U","NORAD_CAT_ID":68159,"ELEMENT_SET_NO":999,"REV_AT_EPOCH":92,"BSTAR":9.5454e-5,"MEAN_MOTION_DOT":0.00065181,"MEAN_MOTION_DDOT":4.1103e-6},{"OBJECT_NAME":"STARLINK-36306","OBJECT_ID":"2026-049U","EPOCH":"2026-03-19T12:13:21.533664","MEAN_MOTION":16.04569636,"ECCENTRICITY":0.0002364,"INCLINATION":97.2782,"RA_OF_ASC_NODE":98.0789,"ARG_OF_PERICENTER":13.0399,"MEAN_ANOMALY":347.0943,"EPHEMERIS_TYPE":0,"CLASSIFICATION_TYPE":"U","NORAD_CAT_ID":68160,"ELEMENT_SET_NO":999,"REV_AT_EPOCH":95,"BSTAR":-0.00030344,"MEAN_MOTION_DOT":-0.00201573,"MEAN_MOTION_DDOT":1.8201e-5},{"OBJECT_NAME":"STARLINK-37057","OBJECT_ID":"2026-049V","EPOCH":"2026-03-19T07:45:00.944640","MEAN_MOTION":16.05035055,"ECCENTRICITY":0.000232,"INCLINATION":97.2783,"RA_OF_ASC_NODE":97.873,"ARG_OF_PERICENTER":150.0328,"MEAN_ANOMALY":210.1087,"EPHEMERIS_TYPE":0,"CLASSIFICATION_TYPE":"U","NORAD_CAT_ID":68161,"ELEMENT_SET_NO":999,"REV_AT_EPOCH":92,"BSTAR":0.00016636,"MEAN_MOTION_DOT":0.00112551,"MEAN_MOTION_DDOT":7.734e-6},{"OBJECT_NAME":"STARLINK-37013","OBJECT_ID":"2026-049W","EPOCH":"2026-03-19T12:11:26.870496","MEAN_MOTION":16.05836372,"ECCENTRICITY":0.0005289,"INCLINATION":97.2782,"RA_OF_ASC_NODE":98.0812,"ARG_OF_PERICENTER":356.1624,"MEAN_ANOMALY":3.9616,"EPHEMERIS_TYPE":0,"CLASSIFICATION_TYPE":"U","NORAD_CAT_ID":68162,"ELEMENT_SET_NO":999,"REV_AT_EPOCH":95,"BSTAR":0.00083676,"MEAN_MOTION_DOT":0.00596665,"MEAN_MOTION_DDOT":0.0001756},{"OBJECT_NAME":"STARLINK-36958","OBJECT_ID":"2026-049X","EPOCH":"2026-03-19T07:42:37.738368","MEAN_MOTION":16.06800152,"ECCENTRICITY":0.0002229,"INCLINATION":97.2782,"RA_OF_ASC_NODE":97.8761,"ARG_OF_PERICENTER":145.2478,"MEAN_ANOMALY":214.895,"EPHEMERIS_TYPE":0,"CLASSIFICATION_TYPE":"U","NORAD_CAT_ID":68163,"ELEMENT_SET_NO":999,"REV_AT_EPOCH":92,"BSTAR":0.0011064,"MEAN_MOTION_DOT":0.00833356,"MEAN_MOTION_DDOT":0.0003694},{"OBJECT_NAME":"STARLINK-37002","OBJECT_ID":"2026-049Y","EPOCH":"2026-03-19T12:12:47.055744","MEAN_MOTION":16.04788784,"ECCENTRICITY":0.0002556,"INCLINATION":97.2783,"RA_OF_ASC_NODE":98.0796,"ARG_OF_PERICENTER":7.0762,"MEAN_ANOMALY":353.0555,"EPHEMERIS_TYPE":0,"CLASSIFICATION_TYPE":"U","NORAD_CAT_ID":68164,"ELEMENT_SET_NO":999,"REV_AT_EPOCH":95,"BSTAR":-0.0001724,"MEAN_MOTION_DOT":-0.00116378,"MEAN_MOTION_DDOT":7.667e-6},{"OBJECT_NAME":"STARLINK-36971","OBJECT_ID":"2026-049Z","EPOCH":"2026-03-19T12:11:52.393056","MEAN_MOTION":16.05092719,"ECCENTRICITY":0.0002491,"INCLINATION":97.2781,"RA_OF_ASC_NODE":98.0809,"ARG_OF_PERICENTER":7.1165,"MEAN_ANOMALY":353.0151,"EPHEMERIS_TYPE":0,"CLASSIFICATION_TYPE":"U","NORAD_CAT_ID":68165,"ELEMENT_SET_NO":999,"REV_AT_EPOCH":95,"BSTAR":-0.0001641,"MEAN_MOTION_DOT":-0.00112852,"MEAN_MOTION_DDOT":7.3698e-6},{"OBJECT_NAME":"STARLINK-36273","OBJECT_ID":"2026-049AA","EPOCH":"2026-03-19T07:41:15.387072","MEAN_MOTION":16.07642662,"ECCENTRICITY":7.9e-5,"INCLINATION":97.2783,"RA_OF_ASC_NODE":97.8777,"ARG_OF_PERICENTER":29.1867,"MEAN_ANOMALY":330.946,"EPHEMERIS_TYPE":0,"CLASSIFICATION_TYPE":"U","NORAD_CAT_ID":68166,"ELEMENT_SET_NO":999,"REV_AT_EPOCH":92,"BSTAR":0.0011974,"MEAN_MOTION_DOT":0.00948095,"MEAN_MOTION_DDOT":0.0005017}]
